O3B MPOWER F1           
1 54755U 22174A   23219.81128674 -.00000024  00000+0  00000+0 0  9991
2 54755   0.0407  11.3906 0003684 199.3820 322.3795  5.00111890 13091
